SL-3 R/B                
1 19046U 88032B   18085.93869502  .00000954  00000-0  75455-4 0  9993
2 19046  97.4882 129.0602 0037472  92.0304 268.5214 15.02384355614804
SL-16 R/B               
1 19120U 88039B   18086.43994571 -.00000130  00000-0 -38946-4 0  9996
2 19120  71.0118  86.4190 0019921 116.7628 243.5538 14.19183130546572
COSMOS 1953             
1 19210U 88050A   18086.18681397  .00000096  00000-0  46449-5 0  9997
2 19210  82.5154 118.9608 0013568  21.6586 338.5212 15.05526852620410
SL-8 R/B                
1 19257U 88053B   18085.38654080 -.00000046  00000-0 -66455-5 0  9997
2 19257  74.0473  57.7298 0021647 240.0376 273.8212 14.37393078559033
COSMOS 1975             
1 19573U 88093A   18086.50362460  .00000943  00000-0  65275-4 0  9997
2 19573  82.5186  71.3192 0015688  56.8254 303.4474 15.04424796602407
SL-14 R/B               
1 19574U 88093B   18085.94691604  .00000087  00000-0  76761-5 0  9992
2 19574  82.5311 240.6863 0020139 263.9307 214.6509 14.83257785570270
SL-16 R/B               
1 19650U 88102B   18085.62642907  .00000136  00000-0  93597-4 0  9995
2 19650  70.9985 141.2028 0012354 117.7062 242.5316 14.15764512515963
INTERCOSMOS 24          
1 20261U 89080A   18086.22236029  .00000267  00000-0  72439-4 0  9999
2 20261  82.6014 186.6059 1204672 163.9871 200.3103 12.55977971301495
SL-14 R/B               
1 20262U 89080C   18086.45945445  .00000055  00000-0  14581-4 0  9993
2 20262  82.5930 234.6526 1236749 330.8247  22.8851 12.48887711297076
DELTA 1 R/B             
1 20323U 89089B   18086.32769543  .00000014  00000-0  13075-4 0  9991
2 20323  97.1212 352.8004 0070286 270.3291  88.9852 14.48248217495709
DELTA 2 R/B(1)          
1 20453U 90008B   18086.17592734  .00002417  00000-0  13936-3 0  9991
2 20453  35.6263   6.5602 0286058   3.3084 356.9447 14.83986163490254
COSMOS 2058             
1 20465U 90010A   18086.18013777  .00000302  00000-0  23387-4 0  9996
2 20465  82.4909 335.7354 0016991  64.0219 296.2752 14.97692618527694
SL-14 R/B               
1 20466U 90010B   18086.13775380  .00000096  00000-0  92657-5 0  9994
2 20466  82.5003 107.8630 0021800 126.6793 233.6428 14.81317696519388
SL-14 R/B               
1 20511U 90018B   18086.48096097  .00000108  00000-0  11278-4 0  9995
2 20511  82.5234  50.2861 0015942 263.7834 235.9754 14.79975555513967
HST                     
1 20580U 90037B   18086.21418981  .00000572  00000-0  24121-4 0  9999
2 20580  28.4695 296.9837 0002655 341.5373 328.1493 15.09005228333077
SL-16 R/B               
1 20625U 90046B   18085.91194976  .00000286  00000-0  17320-3 0  9994
2 20625  70.9978 275.7508 0013065  30.8950 329.2938 14.14630095437565
COSMOS 2084             
1 20663U 90055A   18086.18585095  .00000127  00000-0  28768-4 0  9995
2 20663  62.7942   3.4261 0129621 117.8286 243.6014 14.91793866502022
SL-6 R/B(2)             
1 20666U 90055D   18085.91703220  .00000101  00000-0  27119-4 0  9991
2 20666  62.7839 282.4501 0106665 137.9981 222.9355 14.92101115503899
SL-8 R/B                
1 20775U 90078B   18086.22597837  .00004200  00000-0  20814-3 0  9995
2 20775  82.9315 175.9525 0583672 189.3503 169.6442 14.31845262389250
SL-8 R/B                
1 21088U 91006B   18086.35949618  .00000028  00000-0  12720-4 0  9999
2 21088  82.9453 169.7333 0021311 245.6022 188.3293 13.77075631364572
OKEAN-3                 
1 21397U 91039A   18086.50370576  .00000293  00000-0  25869-4 0  9998
2 21397  82.5221 229.2491 0018123  14.6425 345.5316 14.92641662452043
COSMOS 2151             
1 21422U 91042A   18085.76986408  .00000148  00000-0  12011-4 0  9999
2 21422  82.5022 337.5237 0015732  72.7206 287.5733 14.91935190429556
SL-14 R/B               
1 21423U 91042B   18085.92556535  .00000094  00000-0  93811-5 0  9990
2 21423  82.4935  57.1940 0018774  47.8029 312.4773 14.79726865423357
ERS-1                   
1 21574U 91050A   18085.84025956  .00000045  00000-0  29370-4 0  9999
2 21574  98.4959  34.0350 0032687 189.3875 170.6704 14.37635775398190
ARIANE 40 R/B           
1 21610U 91050F   18086.22979727 -.00000003  00000-0  13002-4 0  9997
2 21610  98.5645 148.9224 0003636 158.8205 242.3848 14.40830945400874
INTERCOSMOS 25          
1 21819U 91086A   18086.40624154  .00000991  00000-0  19777-3 0  9997
2 21819  82.5807 252.9817 1518847 204.1748 148.0170 12.04820250146384
SL-14 R/B               
1 21820U 91086B   18085.72007243  .00000163  00000-0  26260-4 0  9994
2 21820  82.5601 311.8227 1576825  44.7515 327.0397 11.93372126140484
SL-8 R/B                
1 21876U 92008B   18085.92241505  .00000010  00000-0 -47859-5 0  9993
2 21876  82.9229 267.0617 0034096 326.7599 140.6233 13.75619527310021
SL-8 R/B                
1 21938U 92020B   18085.72048507  .00000007  00000-0 -85767-5 0  9997
2 21938  82.9310 150.7208 0030503 122.7399 352.8188 13.75268205301823
SL-16 R/B               
1 22220U 92076B   18086.44898351  .00000137  00000-0  92702-4 0  9992
2 22220  71.0010 182.9897 0013867 210.2614 220.7450 14.16429759310882
SL-16 R/B               
1 22285U 92093B   18086.14333195 -.00000073  00000-0 -13299-4 0  9994
2 22285  71.0240 338.7077 0002651  25.7613 334.3642 14.15023971302562
COSMOS 2228             
1 22286U 92094A   18086.18940000  .00000217  00000-0  20909-4 0  9993
2 22286  82.5174 107.2084 0019614 261.3951  98.5044 14.87918023364577
SL-16 R/B               
1 22566U 93016B   18086.55176759  .00000107  00000-0  79646-4 0  9992
2 22566  71.0076 192.1169 0008432  56.7046 303.4883 14.14953519291359
COSMOS 2242             
1 22626U 93024A   18086.22530023  .00000201  00000-0  19339-4 0  9998
2 22626  82.5211 134.9757 0017401 260.3489  99.5763 14.87781914348239
SL-16 R/B               
1 22803U 93059B   18085.92234937 -.00000099  00000-0 -25396-4 0  9991
2 22803  70.9926  13.6444 0018919 309.9517  49.9943 14.16786937268077
ARIANE 40 R/B           
1 22830U 93061H   18086.08926789 -.00000023  00000-0  87076-5 0  9995
2 22830  98.8661 112.6967 0011032 176.3080 183.8186 14.31413847278715
COSMOS 2278             
1 23087U 94023A   18085.65634143  .00000284  00000-0  17516-3 0  9999
2 23087  71.0515 128.6018 0008211 155.7713 204.3797 14.13760438234411
SL-16 R/B               
1 23088U 94023B   18085.89866214 -.00000253  00000-0 -10661-3 0  9994
2 23088  71.0012  48.6818 0003081 343.2024  16.8995 14.14667687235524
SL-16 R/B               
1 23343U 94074B   18085.77381747 -.00000014  00000-0  55314-5 0  9994
2 23343  98.1158 130.0712 0005725 241.0317 252.8861 14.76726530258536
SL-16 R/B               
1 23405U 94077B   18085.93665272 -.00000051  00000-0 -16917-5 0  9990
2 23405  70.9856 340.9185 0004982 261.0738  98.9821 14.15201793205266
ERS-2                   
1 23560U 95021A   18086.54720633  .00001369  00000-0  64594-4 0  9997
2 23560  98.5463 122.1827 0004757  71.4805 288.6944 15.21588349218462
ARIANE 40+ R/B          
1 23561U 95021B   18085.93757910  .00000029  00000-0  25032-4 0  9994
2 23561  98.7958  98.7069 0007744 136.7092 282.4043 14.37863559201663
SL-16 R/B               
1 23705U 95058B   18086.19975312 -.00000158  00000-0 -57050-4 0  9991
2 23705  71.0225 155.2556 0014388 233.9442 126.0349 14.15115875157226
SL-16 R/B               
1 24298U 96051B   18085.71591747 -.00000192  00000-0 -77424-4 0  9991
2 24298  70.8410 186.6363 0014098 129.1667 231.0708 14.12455044111716
ORBVIEW 2 (SEASTAR)     
1 24883U 97037A   18085.89081046  .00000028  00000-0  25924-4 0  9995
2 24883  98.5530 196.0548 0002275  20.2095 339.9179 14.33442729 92151
SL-16 R/B               
1 25400U 98043G   18086.44986605 -.00000019  00000-0  10216-4 0  9995
2 25400  98.5255  31.1522 0009719 181.2297 178.8861 14.25431546 25424
SL-16 R/B               
1 25407U 98045B   18086.47427275  .00000199  00000-0  12577-3 0  9999
2 25407  71.0116 166.1095 0006556 149.7297 210.4206 14.15773334 16285
ISS (ZARYA)             
1 25544U 98067A   18086.80991752  .00002319  00000-0  42229-4 0  9992
2 25544  51.6422  64.3986 0001462 259.9089 182.2567 15.54136182105860
SL-8 R/B                
1 25723U 99022C   18085.51641917  .00009907  00000-0  13267-3 0  9994
2 25723  48.4144  97.0625 0009659 316.6287  43.3899 15.58517916 50477
CZ-4B R/B               
1 25732U 99025C   18086.12794022 -.00000006  00000-0  19646-4 0  9991
2 25732  98.9963  96.3699 0037482   7.8817  33.4417 14.17646519976729
OKEAN-O                 
1 25860U 99039A   18085.93842568  .00000056  00000-0  15685-4 0  9998
2 25860  98.2130  80.1128 0000987  67.8087 292.3227 14.76537735  5466
SL-16 R/B               
1 25861U 99039B   18086.48798470  .00000046  00000-0  13769-4 0  9992
2 25861  98.1445  65.3345 0014431 248.4232 221.9772 14.78468531  7632
TERRA                   
1 25994U 99068A   18086.26091030  .00000215  00000-0  57887-4 0  9992
2 25994  98.2116 162.2989 0000947  80.5608 279.5703 14.57091299971896
ENVISAT                 
1 27386U 02009A   18086.53146481 -.00000024  00000-0  58339-5 0  9992
2 27386  98.1944 124.3994 0001091  81.4794 278.6534 14.37918093841798
IDEFIX & ARIANE 42P R/B 
1 27422U 02021B   18085.91662676 -.00000022  00000-0  72393-5 0  9991
2 27422  98.2510  75.8130 0013363 116.0177 244.2384 14.29260018828959
AQUA                    
1 27424U 02022A   18086.51279890  .00000096  00000-0  31394-4 0  9998
2 27424  98.2113  28.9629 0001402 357.9203 139.6302 14.57113780845533
CZ-4B R/B               
1 27432U 02024C   18085.91796707 -.00000005  00000-0  21252-4 0  9996
2 27432  99.0266  66.6461 0049791 313.7927  98.5209 14.14060886818674
MIDORI II (ADEOS-II)    
1 27597U 02056A   18085.91250179  .00000040  00000-0  33563-4 0  9997
2 27597  98.4116  49.0735 0000857 139.4995 220.6250 14.27340409795753
H-2A R/B                
1 27601U 02056E   18085.80657537  .00000028  00000-0  25232-4 0  9990
2 27601  98.3376 148.2922 0072406 176.1239 297.9251 14.31830735798251
